HONGXING-6E
1 58253U 23172A   26086.28391674 -.00000379  00000+0  00000+0 0  9998
2 58253   0.0181 159.5720 0002796 209.4310  33.4411  1.00270941  8836
